STARLINK-1591_new
1 16045C 20055U   21326.15190901 -.00021322  00000-0 -14283-2 0  3267
2 16045  53.0535 328.0643 0001902  53.7415 347.8147 15.06425552    15
STARLINK-1591_old
1 26045C 20055U   21325.17101590 -.00000433  00000-0 -28984-4 0  3258
2 26045  53.0531 332.4680 0001831  54.8341  64.3516 15.06401106    12
